[{"OBJECT_NAME":"YAOGAN-7","OBJECT_ID":"2009-069A","EPOCH":"2026-03-09T15:13:41.910240","MEAN_MOTION":14.77892763,"ECCENTRICITY":0.0024777,"INCLINATION":98.0209,"RA_OF_ASC_NODE":315.0474,"ARG_OF_PERICENTER":3.5312,"MEAN_ANOMALY":356.6068,"EPHEMERIS_TYPE":0,"CLASSIFICATION_TYPE":"U","NORAD_CAT_ID":36110,"ELEMENT_SET_NO":999,"REV_AT_EPOCH":87492,"BSTAR":0.00013889,"MEAN_MOTION_DOT":9.51e-6,"MEAN_MOTION_DDOT":0},{"OBJECT_NAME":"GEESAT-5 01","OBJECT_ID":"2025-201A","EPOCH":"2026-03-09T16:09:44.414208","MEAN_MOTION":14.83771108,"ECCENTRICITY":0.00031214,"INCLINATION":49.9903,"RA_OF_ASC_NODE":141.1054,"ARG_OF_PERICENTER":18.6634,"MEAN_ANOMALY":341.4418,"EPHEMERIS_TYPE":0,"CLASSIFICATION_TYPE":"U","NORAD_CAT_ID":65550,"ELEMENT_SET_NO":999,"REV_AT_EPOCH":2702,"BSTAR":0.00034504263,"MEAN_MOTION_DOT":2.662e-5,"MEAN_MOTION_DDOT":0}]
