YAOGAN-7                
1 36110U 09069A   26068.63451285  .00000951  00000+0  13889-3 0  9997
2 36110  98.0209 315.0474 0024777   3.5312 356.6068 14.77892763874924
GEESAT-5 01             
1 65550U 25201A   26068.67343072  .00002662  00000+0  34504-3 0  9999
2 65550  49.9903 141.1054 0003121  18.6634 341.4418 14.83771107 27023
